[{"OBJECT_NAME":"STARLINK-30960","OBJECT_ID":"2023-183V","EPOCH":"2026-03-09T22:00:01.999584","MEAN_MOTION":15.71845093,"ECCENTRICITY":0.00290225,"INCLINATION":42.9869,"RA_OF_ASC_NODE":306.2273,"ARG_OF_PERICENTER":250.1506,"MEAN_ANOMALY":28.4078,"EPHEMERIS_TYPE":0,"CLASSIFICATION_TYPE":"U","NORAD_CAT_ID":58456,"ELEMENT_SET_NO":999,"REV_AT_EPOCH":592,"BSTAR":0.0060496308,"MEAN_MOTION_DOT":0.00921154,"MEAN_MOTION_DDOT":0},{"OBJECT_NAME":"STARLINK-36758","OBJECT_ID":"2026-036Y","EPOCH":"2026-03-09T21:14:04.216992","MEAN_MOTION":15.82143448,"ECCENTRICITY":0.00023937,"INCLINATION":42.9988,"RA_OF_ASC_NODE":248.3768,"ARG_OF_PERICENTER":269.5322,"MEAN_ANOMALY":90.5275,"EPHEMERIS_TYPE":0,"CLASSIFICATION_TYPE":"U","NORAD_CAT_ID":67926,"ELEMENT_SET_NO":999,"REV_AT_EPOCH":370,"BSTAR":0.0017039281,"MEAN_MOTION_DOT":0.00376543,"MEAN_MOTION_DDOT":0}]
